[
  {
    "OBJECT_NAME": "STARLINK-32020",
    "OBJECT_ID": "24124U",
    "EPOCH": "2025-11-10T23:26:17.038176",
    "MEAN_MOTION": 15.30207975,
    "ECCENTRICITY": 0.000107,
    "INCLINATION": 53.1601,
    "RA_OF_ASC_NODE": 153.6556,
    "ARG_OF_PERICENTER": 88.9199,
    "MEAN_ANOMALY": 271.1925,
    "EPHEMERIS_TYPE": 0,
    "CLASSIFICATION_TYPE": "U",
    "NORAD_CAT_ID": 60201,
    "ELEMENT_SET_NO": 999,
    "REV_AT_EPOCH": 7612,
    "BSTAR": 1.4349000000000002e-06,
    "MEAN_MOTION_DOT": -3.17e-06,
    "MEAN_MOTION_DDOT": 0.0,
    "TLE_LINE1": "1 60201U 24124U   25314.97658609 -.00000317  00000+0  14349-5 0  9994",
    "TLE_LINE2": "2 60201  53.1601 153.6556 0001070  88.9199 271.1925 15.30207975 76122",
    "COMMENT": "Grouped by shell and plane from TLE"
  },
  {
    "OBJECT_NAME": "STARLINK-32041",
    "OBJECT_ID": "24124V",
    "EPOCH": "2025-11-11T06:17:26.995200",
    "MEAN_MOTION": 15.30195318,
    "ECCENTRICITY": 0.0001169,
    "INCLINATION": 53.1629,
    "RA_OF_ASC_NODE": 152.5945,
    "ARG_OF_PERICENTER": 90.7985,
    "MEAN_ANOMALY": 269.315,
    "EPHEMERIS_TYPE": 0,
    "CLASSIFICATION_TYPE": "U",
    "NORAD_CAT_ID": 60202,
    "ELEMENT_SET_NO": 999,
    "REV_AT_EPOCH": 7736,
    "BSTAR": 6.291900000000001e-05,
    "MEAN_MOTION_DOT": 1.505e-05,
    "MEAN_MOTION_DDOT": 0.0,
    "TLE_LINE1": "1 60202U 24124V   25315.26211800  .00001505  00000+0  62919-4 0  9990",
    "TLE_LINE2": "2 60202  53.1629 152.5945 0001169  90.7985 269.3150 15.30195318 77369",
    "COMMENT": "Grouped by shell and plane from TLE"
  },
  {
    "OBJECT_NAME": "STARLINK-32386",
    "OBJECT_ID": "24171P",
    "EPOCH": "2025-11-10T19:38:42.652608",
    "MEAN_MOTION": 15.30193454,
    "ECCENTRICITY": 0.0001198,
    "INCLINATION": 53.1566,
    "RA_OF_ASC_NODE": 154.2419,
    "ARG_OF_PERICENTER": 88.2022,
    "MEAN_ANOMALY": 271.9116,
    "EPHEMERIS_TYPE": 0,
    "CLASSIFICATION_TYPE": "U",
    "NORAD_CAT_ID": 61213,
    "ELEMENT_SET_NO": 999,
    "REV_AT_EPOCH": 6417,
    "BSTAR": 3.9095000000000004e-05,
    "MEAN_MOTION_DOT": 7.99e-06,
    "MEAN_MOTION_DDOT": 0.0,
    "TLE_LINE1": "1 61213U 24171P   25314.81854922  .00000799  00000+0  39095-4 0  9996",
    "TLE_LINE2": "2 61213  53.1566 154.2419 0001198  88.2022 271.9116 15.30193454 64178",
    "COMMENT": "Grouped by shell and plane from TLE"
  },
  {
    "OBJECT_NAME": "STARLINK-32392",
    "OBJECT_ID": "24171Q",
    "EPOCH": "2025-11-10T23:12:38.647008",
    "MEAN_MOTION": 15.3019957,
    "ECCENTRICITY": 0.0001313,
    "INCLINATION": 53.1599,
    "RA_OF_ASC_NODE": 153.7485,
    "ARG_OF_PERICENTER": 88.928,
    "MEAN_ANOMALY": 271.1871,
    "EPHEMERIS_TYPE": 0,
    "CLASSIFICATION_TYPE": "U",
    "NORAD_CAT_ID": 61214,
    "ELEMENT_SET_NO": 999,
    "REV_AT_EPOCH": 6419,
    "BSTAR": 3.2105e-05,
    "MEAN_MOTION_DOT": 5.92e-06,
    "MEAN_MOTION_DDOT": 0.0,
    "TLE_LINE1": "1 61214U 24171Q   25314.96711397  .00000592  00000+0  32105-4 0  9997",
    "TLE_LINE2": "2 61214  53.1599 153.7485 0001313  88.9280 271.1871 15.30199570 64191",
    "COMMENT": "Grouped by shell and plane from TLE"
  },
  {
    "OBJECT_NAME": "STARLINK-32436",
    "OBJECT_ID": "24171R",
    "EPOCH": "2025-11-10T22:48:20.628000",
    "MEAN_MOTION": 15.30195269,
    "ECCENTRICITY": 0.0001732,
    "INCLINATION": 53.155,
    "RA_OF_ASC_NODE": 153.6411,
    "ARG_OF_PERICENTER": 92.6225,
    "MEAN_ANOMALY": 267.4974,
    "EPHEMERIS_TYPE": 0,
    "CLASSIFICATION_TYPE": "U",
    "NORAD_CAT_ID": 61215,
    "ELEMENT_SET_NO": 999,
    "REV_AT_EPOCH": 6419,
    "BSTAR": 1.8141e-05,
    "MEAN_MOTION_DOT": 1.78e-06,
    "MEAN_MOTION_DDOT": 0.0,
    "TLE_LINE1": "1 61215U 24171R   25314.95023875  .00000178  00000+0  18141-4 0  9998",
    "TLE_LINE2": "2 61215  53.1550 153.6411 0001732  92.6225 267.4974 15.30195269 64196",
    "COMMENT": "Grouped by shell and plane from TLE"
  },
  {
    "OBJECT_NAME": "STARLINK-32425",
    "OBJECT_ID": "24171S",
    "EPOCH": "2025-11-10T20:37:58.290816",
    "MEAN_MOTION": 15.30192791,
    "ECCENTRICITY": 8.35e-05,
    "INCLINATION": 53.1597,
    "RA_OF_ASC_NODE": 154.5002,
    "ARG_OF_PERICENTER": 77.0306,
    "MEAN_ANOMALY": 283.0788,
    "EPHEMERIS_TYPE": 0,
    "CLASSIFICATION_TYPE": "U",
    "NORAD_CAT_ID": 61216,
    "ELEMENT_SET_NO": 999,
    "REV_AT_EPOCH": 6417,
    "BSTAR": 8.011300000000001e-05,
    "MEAN_MOTION_DOT": 2.014e-05,
    "MEAN_MOTION_DDOT": 0.0,
    "TLE_LINE1": "1 61216U 24171S   25314.85970244  .00002014  00000+0  80113-4 0  9998",
    "TLE_LINE2": "2 61216  53.1597 154.5002 0000835  77.0306 283.0788 15.30192791 64176",
    "COMMENT": "Grouped by shell and plane from TLE"
  },
  {
    "OBJECT_NAME": "STARLINK-32342",
    "OBJECT_ID": "24171T",
    "EPOCH": "2025-11-10T23:30:52.634304",
    "MEAN_MOTION": 15.30196655,
    "ECCENTRICITY": 0.0001362,
    "INCLINATION": 53.1586,
    "RA_OF_ASC_NODE": 153.8257,
    "ARG_OF_PERICENTER": 101.4088,
    "MEAN_ANOMALY": 258.7066,
    "EPHEMERIS_TYPE": 0,
    "CLASSIFICATION_TYPE": "U",
    "NORAD_CAT_ID": 61217,
    "ELEMENT_SET_NO": 999,
    "REV_AT_EPOCH": 6510,
    "BSTAR": 0.00014155000000000003,
    "MEAN_MOTION_DOT": 3.835e-05,
    "MEAN_MOTION_DDOT": 0.0,
    "TLE_LINE1": "1 61217U 24171T   25314.97977586  .00003835  00000+0  14155-3 0  9992",
    "TLE_LINE2": "2 61217  53.1586 153.8257 0001362 101.4088 258.7066 15.30196655 65109",
    "COMMENT": "Grouped by shell and plane from TLE"
  },
  {
    "OBJECT_NAME": "STARLINK-32423",
    "OBJECT_ID": "24171U",
    "EPOCH": "2025-11-10T23:33:55.273536",
    "MEAN_MOTION": 15.30204376,
    "ECCENTRICITY": 0.0001295,
    "INCLINATION": 53.1644,
    "RA_OF_ASC_NODE": 153.8404,
    "ARG_OF_PERICENTER": 82.5681,
    "MEAN_ANOMALY": 277.5467,
    "EPHEMERIS_TYPE": 0,
    "CLASSIFICATION_TYPE": "U",
    "NORAD_CAT_ID": 61218,
    "ELEMENT_SET_NO": 999,
    "REV_AT_EPOCH": 6510,
    "BSTAR": 2.8969000000000003e-05,
    "MEAN_MOTION_DOT": 4.99e-06,
    "MEAN_MOTION_DDOT": 0.0,
    "TLE_LINE1": "1 61218U 24171U   25314.98188974  .00000499  00000+0  28969-4 0  9991",
    "TLE_LINE2": "2 61218  53.1644 153.8404 0001295  82.5681 277.5467 15.30204376 65106",
    "COMMENT": "Grouped by shell and plane from TLE"
  },
  {
    "OBJECT_NAME": "STARLINK-32248",
    "OBJECT_ID": "24171V",
    "EPOCH": "2025-11-11T06:15:58.068000",
    "MEAN_MOTION": 15.30195654,
    "ECCENTRICITY": 0.0001045,
    "INCLINATION": 53.1562,
    "RA_OF_ASC_NODE": 152.7323,
    "ARG_OF_PERICENTER": 81.0429,
    "MEAN_ANOMALY": 279.069,
    "EPHEMERIS_TYPE": 0,
    "CLASSIFICATION_TYPE": "U",
    "NORAD_CAT_ID": 61219,
    "ELEMENT_SET_NO": 999,
    "REV_AT_EPOCH": 6514,
    "BSTAR": 2.8324000000000002e-05,
    "MEAN_MOTION_DOT": 4.8e-06,
    "MEAN_MOTION_DDOT": 0.0,
    "TLE_LINE1": "1 61219U 24171V   25315.26108875  .00000480  00000+0  28324-4 0  9991",
    "TLE_LINE2": "2 61219  53.1562 152.7323 0001045  81.0429 279.0690 15.30195654 65148",
    "COMMENT": "Grouped by shell and plane from TLE"
  },
  {
    "OBJECT_NAME": "STARLINK-33545",
    "OBJECT_ID": "24220P",
    "EPOCH": "2025-11-11T06:31:18.221952",
    "MEAN_MOTION": 15.27601865,
    "ECCENTRICITY": 0.0001021,
    "INCLINATION": 42.995,
    "RA_OF_ASC_NODE": 154.0559,
    "ARG_OF_PERICENTER": 91.9554,
    "MEAN_ANOMALY": 268.1415,
    "EPHEMERIS_TYPE": 0,
    "CLASSIFICATION_TYPE": "U",
    "NORAD_CAT_ID": 62101,
    "ELEMENT_SET_NO": 999,
    "REV_AT_EPOCH": 5491,
    "BSTAR": 0.0010662,
    "MEAN_MOTION_DOT": 0.00029214,
    "MEAN_MOTION_DDOT": 0.0,
    "TLE_LINE1": "1 62101U 24220P   25315.27173868  .00029214  00000+0  10662-2 0  9992",
    "TLE_LINE2": "2 62101  42.9950 154.0559 0001021  91.9554 268.1415 15.27601865 54914",
    "COMMENT": "Grouped by shell and plane from TLE"
  },
  {
    "OBJECT_NAME": "STARLINK-33562",
    "OBJECT_ID": "24220Q",
    "EPOCH": "2025-11-11T06:47:56.456448",
    "MEAN_MOTION": 15.27618378,
    "ECCENTRICITY": 0.0002268,
    "INCLINATION": 43.0057,
    "RA_OF_ASC_NODE": 154.1447,
    "ARG_OF_PERICENTER": 286.1984,
    "MEAN_ANOMALY": 73.8618,
    "EPHEMERIS_TYPE": 0,
    "CLASSIFICATION_TYPE": "U",
    "NORAD_CAT_ID": 62102,
    "ELEMENT_SET_NO": 999,
    "REV_AT_EPOCH": 5491,
    "BSTAR": 0.0013239,
    "MEAN_MOTION_DOT": 0.00036392,
    "MEAN_MOTION_DDOT": 0.0,
    "TLE_LINE1": "1 62102U 24220Q   25315.28329232  .00036392  00000+0  13239-2 0  9990",
    "TLE_LINE2": "2 62102  43.0057 154.1447 0002268 286.1984  73.8618 15.27618378 54914",
    "COMMENT": "Grouped by shell and plane from TLE"
  },
  {
    "OBJECT_NAME": "STARLINK-33554",
    "OBJECT_ID": "24220R",
    "EPOCH": "2025-11-11T06:25:43.942080",
    "MEAN_MOTION": 15.27618683,
    "ECCENTRICITY": 0.0002038,
    "INCLINATION": 43.0039,
    "RA_OF_ASC_NODE": 154.0268,
    "ARG_OF_PERICENTER": 276.7523,
    "MEAN_ANOMALY": 83.3097,
    "EPHEMERIS_TYPE": 0,
    "CLASSIFICATION_TYPE": "U",
    "NORAD_CAT_ID": 62103,
    "ELEMENT_SET_NO": 999,
    "REV_AT_EPOCH": 5484,
    "BSTAR": 0.00082566,
    "MEAN_MOTION_DOT": 0.00022555,
    "MEAN_MOTION_DDOT": 0.0,
    "TLE_LINE1": "1 62103U 24220R   25315.26786970  .00022555  00000+0  82566-3 0  9991",
    "TLE_LINE2": "2 62103  43.0039 154.0268 0002038 276.7523  83.3097 15.27618683 54842",
    "COMMENT": "Grouped by shell and plane from TLE"
  },
  {
    "OBJECT_NAME": "STARLINK-33555",
    "OBJECT_ID": "24220S",
    "EPOCH": "2025-11-10T20:14:45.585888",
    "MEAN_MOTION": 15.27617904,
    "ECCENTRICITY": 0.0001275,
    "INCLINATION": 42.9994,
    "RA_OF_ASC_NODE": 156.8517,
    "ARG_OF_PERICENTER": 260.4269,
    "MEAN_ANOMALY": 99.6438,
    "EPHEMERIS_TYPE": 0,
    "CLASSIFICATION_TYPE": "U",
    "NORAD_CAT_ID": 62104,
    "ELEMENT_SET_NO": 999,
    "REV_AT_EPOCH": 5498,
    "BSTAR": 0.0015163,
    "MEAN_MOTION_DOT": 0.00041749,
    "MEAN_MOTION_DDOT": 0.0,
    "TLE_LINE1": "1 62104U 24220S   25314.84358317  .00041749  00000+0  15163-2 0  9999",
    "TLE_LINE2": "2 62104  42.9994 156.8517 0001275 260.4269  99.6438 15.27617904 54986",
    "COMMENT": "Grouped by shell and plane from TLE"
  }
]